STARLINK-4386           
1 53649U 22105B   26068.64453437 -.00000280  00000+0 -15178-4 0  9992
2 53649  97.6023 311.2230 0002183  74.0252 286.1215 15.05650293193297
KUIPER-00139            
1 65765U 25217D   26068.30974975  .00011274  00000+0  87196-3 0  9990
2 65765  51.8865  35.5400 0007119 318.9010  41.1425 15.01890214 24959
